NORAD_CAT_ID,OBJECT_NAME,OBJECT_TYPE,EPOCH,MEAN_MOTION,ECCENTRICITY,INCLINATION,RA_OF_ASC_NODE,ARG_OF_PERICENTER,MEAN_ANOMALY,BSTAR,MEAN_MOTION_DOT,MEAN_MOTION_DDOT,TLE_LINE0,TLE_LINE1,TLE_LINE2,SEMIMAJOR_AXIS,PERIOD,APOGEE,PERIGEE,DECAYED
51139.0,STARLINK-3172,PAYLOAD,2024-01-09 19:06:41,15.08844165,0.0001484,53.2155,245.0902,79.9996,280.1164,0.00014464,2.015e-05,0.0,0 STARLINK-3172,1 51139U 22005AM  24009.79631349  .00002015  00000-0  14464-3 0  9995,2 51139  53.2155 245.0902 0001484  79.9996 280.1164 15.08844165110602,6917.868,95.437,540.759,538.706,0.0
51139.0,STARLINK-3172,PAYLOAD,2024-01-09 22:17:27,15.08844389,0.0001496,53.2155,244.4955,79.4242,280.6919,0.00013419,1.849e-05,0.0,0 STARLINK-3172,1 51139U 22005AM  24009.92879296  .00001849  00000-0  13419-3 0  9998,2 51139  53.2155 244.4955 0001496  79.4242 280.6919 15.08844389109514,6917.867,95.437,540.767,538.697,0.0
51139.0,STARLINK-3172,PAYLOAD,2024-01-10 01:28:13,15.08844622,0.00015,53.2154,243.9008,79.7158,280.4003,0.00012757,1.743e-05,0.0,0 STARLINK-3172,1 51139U 22005AM  24010.06127245  .00001743  00000-0  12757-3 0  9992,2 51139  53.2154 243.9008 0001500  79.7158 280.4003 15.08844622109535,6917.866,95.437,540.769,538.694,0.0
51139.0,STARLINK-3172,PAYLOAD,2024-01-10 18:57:28,15.08837736,0.0001667,53.2166,240.6268,108.9604,251.1569,2.7455e-05,1.49e-06,0.0,0 STARLINK-3172,1 51139U 22005AM  24010.78991474  .00000149  00000-0  27455-4 0  9995,2 51139  53.2166 240.6268 0001667 108.9604 251.1569 15.08837736110751,6917.887,95.438,540.906,538.599,0.0
51139.0,STARLINK-3172,PAYLOAD,2024-01-11 01:19:01,15.0883917,0.0001583,53.217,239.438,101.1844,258.9326,4.8115e-05,4.78e-06,0.0,0 STARLINK-3172,1 51139U 22005AM  24011.05487565  .00000478  00000-0  48115-4 0  9998,2 51139  53.2170 239.4380 0001583 101.1844 258.9326 15.08839170109685,6917.883,95.438,540.843,538.653,0.0
51139.0,STARLINK-3172,PAYLOAD,2024-01-11 20:23:38,15.0884281,0.0001585,53.217,235.8697,104.3245,255.7923,0.00010801,1.432e-05,0.0,0 STARLINK-3172,1 51139U 22005AM  24011.84975173  .00001432  00000-0  10801-3 0  9993,2 51139  53.2170 235.8697 0001585 104.3245 255.7923 15.08842810110919,6917.872,95.437,540.833,538.64,0.0
51139.0,STARLINK-3172,PAYLOAD,2024-01-11 21:59:01,15.08843779,0.0001552,53.2169,235.5724,101.5114,258.6053,0.00011388,1.525e-05,0.0,0 STARLINK-3172,1 51139U 22005AM  24011.91599112  .00001525  00000-0  11388-3 0  9990,2 51139  53.2169 235.5724 0001552 101.5114 258.6053 15.08843779109811,6917.869,95.437,540.807,538.66,0.0
51139.0,STARLINK-3172,PAYLOAD,2024-01-12 01:09:47,15.08844024,0.0001554,53.2169,234.9778,101.4547,258.662,0.00011211,1.497e-05,0.0,0 STARLINK-3172,1 51139U 22005AM  24012.04847091  .00001497  00000-0  11211-3 0  9990,2 51139  53.2169 234.9778 0001554 101.4547 258.6620 15.08844024109830,6917.868,95.437,540.808,538.658,0.0
51139.0,STARLINK-3172,PAYLOAD,2024-01-12 20:14:24,15.08858654,0.0001427,53.2152,231.4112,95.5186,264.5969,0.00025246,3.734e-05,0.0,0 STARLINK-3172,1 51139U 22005AM  24012.84333867  .00003734  00000-0  25246-3 0  9998,2 51139  53.2152 231.4112 0001427  95.5186 264.5969 15.08858654111061,6917.823,95.436,540.676,538.701,0.0
51139.0,STARLINK-3172,PAYLOAD,2024-01-12 21:49:47,15.08859655,0.0001393,53.215,231.1138,88.0377,272.0774,0.00026074,3.866e-05,0.0,0 STARLINK-3172,1 51139U 22005AM  24012.90957788  .00003866  00000-0  26074-3 0  9995,2 51139  53.2150 231.1138 0001393  88.0377 272.0774 15.08859655109961,6917.82,95.436,540.649,538.722,0.0
51139.0,STARLINK-3172,PAYLOAD,2024-01-13 20:05:12,15.0883673,0.0001229,53.2145,226.9521,98.5105,261.6026,-0.00011781,-2.162e-05,0.0,0 STARLINK-3172,1 51139U 22005AM  24013.83695021 -.00002162  00000-0 -11781-3 0  9996,2 51139  53.2145 226.9521 0001229  98.5105 261.6026 15.08836730111210,6917.89,95.438,540.606,538.905,0.0
51139.0,STARLINK-3172,PAYLOAD,2024-01-14 13:34:27,15.08831691,0.0001353,53.2153,223.6796,90.0281,270.0866,-0.00010514,-1.96e-05,0.0,0 STARLINK-3172,1 51139U 22005AM  24014.56559750 -.00001960  00000-0 -10514-3 0  9993,2 51139  53.2153 223.6796 0001353  90.0281 270.0866 15.08831691110213,6917.906,95.438,540.707,538.835,0.0
51139.0,STARLINK-3172,PAYLOAD,2024-01-14 19:56:00,15.0883549,0.0001266,53.2143,222.4917,89.989,270.1247,-4.4319e-05,-9.93e-06,0.0,0 STARLINK-3172,1 51139U 22005AM  24014.83055681 -.00000993  00000-0 -44319-4 0  9993,2 51139  53.2143 222.4917 0001266  89.9890 270.1247 15.08835490110259,6917.894,95.438,540.635,538.883,0.0
51139.0,STARLINK-3172,PAYLOAD,2024-01-15 18:11:24,15.088421,0.0001324,53.2151,218.3283,88.9956,271.1188,0.00036773,5.57e-05,0.0,0 STARLINK-3172,1 51139U 22005AM  24015.75791952  .00005570  00000-0  36773-3 0  9991,2 51139  53.2151 218.3283 0001324  88.9956 271.1188 15.08842100111505,6917.874,95.437,540.655,538.823,0.0
51139.0,STARLINK-3172,PAYLOAD,2024-01-15 19:46:47,15.08844798,0.0001378,53.2148,218.031,84.8413,275.2736,0.00043523,6.646e-05,0.0,0 STARLINK-3172,1 51139U 22005AM  24015.82415994  .00006646  00000-0  43523-3 0  9994,2 51139  53.2148 218.0310 0001378  84.8413 275.2736 15.08844798110408,6917.866,95.437,540.684,538.777,0.0
51139.0,STARLINK-3172,PAYLOAD,2024-01-15 22:57:33,15.08849075,0.000134,53.2146,217.4357,88.2807,271.8338,0.00048908,7.506e-05,0.0,0 STARLINK-3172,1 51139U 22005AM  24015.95663826  .00007506  00000-0  48908-3 0  9995,2 51139  53.2146 217.4357 0001340  88.2807 271.8338 15.08849075110429,6917.853,95.437,540.645,538.791,0.0
51139.0,STARLINK-3172,PAYLOAD,2024-01-16 19:37:35,15.08814264,0.0001565,53.2155,213.564,104.8244,255.2921,0.00094021,0.00014697,0.0,0 STARLINK-3172,1 51139U 22005AM  24016.81777632  .00014697  00000-0  94021-3 0  9998,2 51139  53.2155 213.5640 0001565 104.8244 255.2921 15.08814264111663,6917.959,95.439,540.907,538.741,0.0
51139.0,STARLINK-3172,PAYLOAD,2024-01-16 22:48:20,15.08835987,0.000157,53.2162,212.9712,109.3748,250.7414,0.00015624,2.199e-05,0.0,0 STARLINK-3172,1 51139U 22005AM  24016.95024273  .00002199  00000-0  15624-3 0  9995,2 51139  53.2162 212.9712 0001570 109.3748 250.7414 15.08835987111683,6917.893,95.438,540.844,538.672,0.0
51139.0,STARLINK-3172,PAYLOAD,2024-01-17 17:52:58,15.08839359,0.0001385,53.2152,209.4046,93.3469,266.7681,1.0389e-05,-1.23e-06,0.0,0 STARLINK-3172,1 51139U 22005AM  24017.74512105 -.00000123  00000-0  10389-4 0  9999,2 51139  53.2152 209.4046 0001385  93.3469 266.7681 15.08839359110699,6917.882,95.438,540.705,538.789,0.0
51139.0,STARLINK-3172,PAYLOAD,2024-01-18 12:57:36,15.08835499,0.0001261,53.2153,205.8375,97.5082,262.6053,4.2371e-05,3.86e-06,0.0,0 STARLINK-3172,1 51139U 22005AM  24018.54000598  .00000386  00000-0  42371-4 0  9992,2 51139  53.2153 205.8375 0001261  97.5082 262.6053 15.08835499110818,6917.894,95.438,540.631,538.887,0.0
51139.0,STARLINK-3172,PAYLOAD,2024-01-18 17:43:46,15.08834803,0.0001254,53.2154,204.945,97.1524,262.9611,2.7029e-05,1.42e-06,0.0,0 STARLINK-3172,1 51139U 22005AM  24018.73872693  .00000142  00000-0  27029-4 0  9999,2 51139  53.2154 204.9450 0001254  97.1524 262.9611 15.08834803111959,6917.896,95.438,540.629,538.894,0.0
51139.0,STARLINK-3172,PAYLOAD,2024-01-19 11:13:00,15.08838853,0.0001222,53.2155,201.6737,98.0942,262.0189,8.9386e-05,1.135e-05,0.0,0 STARLINK-3172,1 51139U 22005AM  24019.46736445  .00001135  00000-0  89386-4 0  9991,2 51139  53.2155 201.6737 0001222  98.0942 262.0189 15.08838853110950,6917.884,95.438,540.594,538.904,0.0
51139.0,STARLINK-3172,PAYLOAD,2024-01-19 17:34:32,15.08844307,0.0001205,53.2155,200.4841,100.3663,259.7465,9.5182e-05,1.227e-05,0.0,0 STARLINK-3172,1 51139U 22005AM  24019.73232097  .00001227  00000-0  95182-4 0  9998,2 51139  53.2155 200.4841 0001205 100.3663 259.7465 15.08844307112101,6917.867,95.437,540.566,538.899,0.0
51139.0,STARLINK-3172,PAYLOAD,2024-01-19 22:20:41,15.08848228,0.0001212,53.2155,199.5919,98.8384,261.2745,7.7823e-05,9.51e-06,0.0,0 STARLINK-3172,1 51139U 22005AM  24019.93103849  .00000951  00000-0  77823-4 0  9997,2 51139  53.2155 199.5919 0001212  98.8384 261.2745 15.08848228111029,6917.855,95.437,540.559,538.882,0.0
51139.0,STARLINK-3172,PAYLOAD,2024-01-20 19:00:43,15.08834023,0.0001298,53.2157,195.725,104.524,255.5896,5.9644e-05,6.61e-06,0.0,0 STARLINK-3172,1 51139U 22005AM  24020.79217074  .00000661  00000-0  59644-4 0  9998,2 51139  53.2157 195.7250 0001298 104.5240 255.5896 15.08834023112265,6917.899,95.438,540.662,538.866,0.0
51139.0,STARLINK-3172,PAYLOAD,2024-01-20 20:36:06,15.08833905,0.0001356,53.2159,195.4276,103.5181,256.5962,6.0336e-05,6.72e-06,0.0,0 STARLINK-3172,1 51139U 22005AM  24020.85841081  .00000672  00000-0  60336-4 0  9998,2 51139  53.2159 195.4276 0001356 103.5181 256.5962 15.08833905111161,6917.899,95.438,540.702,538.826,0.0
51139.0,STARLINK-3172,PAYLOAD,2024-01-21 18:51:29,15.08863727,0.0001254,53.217,191.2621,90.4015,269.7121,-0.00020235,-3.509e-05,0.0,0 STARLINK-3172,1 51139U 22005AM  24021.78575965 -.00003509  00000-0 -20235-3 0  9993,2 51139  53.2170 191.2621 0001254  90.4015 269.7121 15.08863727112416,6917.808,95.436,540.54,538.805,0.0
51139.0,STARLINK-3172,PAYLOAD,2024-01-21 20:26:53,15.08847043,0.0001285,53.2162,190.967,97.2689,262.845,4.7823e-05,4.73e-06,0.0,0 STARLINK-3172,1 51139U 22005AM  24021.85200332  .00000473  00000-0  47823-4 0  9992,2 51139  53.2162 190.9670 0001285  97.2689 262.8450 15.08847043111313,6917.859,95.437,540.613,538.835,0.0
51139.0,STARLINK-3172,PAYLOAD,2024-01-22 17:06:56,15.08821732,0.0001236,53.2166,187.1016,91.8875,268.2259,-3.1134e-05,-7.83e-06,0.0,0 STARLINK-3172,1 51139U 22005AM  24022.71315024 -.00000783  00000-0 -31134-4 0  9997,2 51139  53.2166 187.1016 0001236  91.8875 268.2259 15.08821732112553,6917.936,95.439,540.656,538.946,0.0
51139.0,STARLINK-3172,PAYLOAD,2024-01-23 15:22:17,15.08863768,0.0001766,53.2181,182.9362,48.5111,311.6032,0.00020555,2.987e-05,0.0,0 STARLINK-3172,1 51139U 22005AM  24023.64047457  .00002987  00000-0  20555-3 0  9992,2 51139  53.2181 182.9362 0001766  48.5111 311.6032 15.08863768112699,6917.808,95.436,540.894,538.451,0.0
